QIANFAN-25              
1 61558U 24185G   25365.58348967  .00000670  00000+0  40097-3 0  9991
2 61558  88.9791  76.0604 0007702 245.7574 114.2803 14.05926030 72156
QIANFAN-26              
1 61559U 24185H   25365.55788787  .00000281  00000+0  26784-3 0  9992
2 61559  88.9802  77.7235 0004024 329.9700  30.1235 13.77824428 71260
QIANFAN-27              
1 61560U 24185J   25365.60677992  .00001066  00000+0  42933-3 0  9991
2 61560  88.9794  74.7349 0006572 212.3676 147.7116 14.27360282 72850
QIANFAN-28              
1 61561U 24185K   25365.57959602  .00001594  00000+0  63627-3 0  9998
2 61561  88.9812  74.7428 0006101 210.2184 149.8659 14.28078727 72866
QIANFAN-29              
1 61562U 24185L   25365.55088956  .00000250  00000+0  36882-3 0  9993
2 61562  88.9780  79.3705 0009588   7.7201 352.4096 13.51019177 70337
QIANFAN-30              
1 61563U 24185M   25365.61411354  .00000262  00000+0  39286-3 0  9997
2 61563  88.9800  78.8967 0006774 355.6601   4.4489 13.49994258 70618
QIANFAN-31              
1 61564U 24185N   25365.61908562  .00000289  00000+0  38368-3 0  9999
2 61564  88.9783  78.6682 0005924 350.1947   9.9092 13.57975157 70728
QIANFAN-32              
1 61565U 24185P   25365.57213364  .00000268  00000+0  39766-3 0  9994
2 61565  88.9842  79.0407 0009491  21.2895 338.8649 13.50742050 70589
